NORAD_CAT_ID,OBJECT_NAME,OBJECT_TYPE,EPOCH,MEAN_MOTION,ECCENTRICITY,INCLINATION,RA_OF_ASC_NODE,ARG_OF_PERICENTER,MEAN_ANOMALY,BSTAR,MEAN_MOTION_DOT,MEAN_MOTION_DDOT,TLE_LINE0,TLE_LINE1,TLE_LINE2,SEMIMAJOR_AXIS,PERIOD,APOGEE,PERIGEE,DECAYED
53183.0,STARLINK-4268,PAYLOAD,2022-12-21 07:12:28,15.08827113,0.0001928,53.2134,1.1577,42.8243,317.2899,-4.187e-05,-9.54e-06,0.0,0 STARLINK-4268,1 53183U 22083BD  22355.30032665 -.00000954  00000-0 -41870-4 0  9991,2 53183  53.2134   1.1577 0001928  42.8243 317.2899 15.08827113 25185,6917.92,95.438,541.119,538.451,0.0
53183.0,STARLINK-4268,PAYLOAD,2022-12-22 00:41:42,15.08834308,0.0001979,53.2133,357.8885,38.5114,321.6019,-9.259e-05,-1.761e-05,0.0,0 STARLINK-4268,1 53183U 22083BD  22356.02896538 -.00001761  00000-0 -92590-4 0  9990,2 53183  53.2133 357.8885 0001979  38.5114 321.6019 15.08834308 25291,6917.898,95.438,541.132,538.394,0.0
53183.0,STARLINK-4268,PAYLOAD,2022-12-22 07:03:15,15.08832156,0.0001982,53.2134,356.6984,39.3929,320.7207,-0.00010282,-1.924e-05,0.0,0 STARLINK-4268,1 53183U 22083BD  22356.29392828 -.00001924  00000-0 -10282-3 0  9990,2 53183  53.2134 356.6984 0001982  39.3929 320.7207 15.08832156 24697,6917.904,95.438,541.14,538.398,0.0
53183.0,STARLINK-4268,PAYLOAD,2022-12-22 16:35:33,15.08840375,0.0002027,53.2137,354.914,42.3134,317.8014,-5.6757e-05,-1.191e-05,0.0,0 STARLINK-4268,1 53183U 22083BD  22356.69136225 -.00001191  00000-0 -56757-4 0  9995,2 53183  53.2137 354.9140 0002027  42.3134 317.8014 15.08840375 25391,6917.879,95.438,541.146,538.342,0.0
53183.0,STARLINK-4268,PAYLOAD,2022-12-23 05:18:39,15.08826028,0.0002046,53.2129,352.5318,42.639,317.4761,2.732800000000001e-05,1.47e-06,0.0,0 STARLINK-4268,1 53183U 22083BD  22357.22129011  .00000147  00000-0  27328-4 0  9990,2 53183  53.2129 352.5318 0002046  42.6390 317.4761 15.08826028 25474,6917.9230000000025,95.438,541.2040000000002,538.373,0.0
53183.0,STARLINK-4268,PAYLOAD,2022-12-23 16:26:21,15.08834217,0.0001929,53.2137,350.454,46.5411,313.5741,9.7739e-05,1.267e-05,0.0,0 STARLINK-4268,1 53183U 22083BD  22357.68496596  .00001267  00000-0  97739-4 0  9992,2 53183  53.2137 350.4540 0001929  46.5411 313.5741 15.08834217 25545,6917.898,95.438,541.0980000000002,538.429,0.0
53183.0,STARLINK-4268,PAYLOAD,2022-12-24 09:55:35,15.08838204,0.0002096,53.2132,347.182,43.0052,317.1104,0.00014984,2.097e-05,0.0,0 STARLINK-4268,1 53183U 22083BD  22358.41360362  .00002097  00000-0  14984-3 0  9997,2 53183  53.2132 347.1820 0002096  43.0052 317.1104 15.08838204 25018,6917.886,95.438,541.201,538.3009999999998,0.0
53183.0,STARLINK-4268,PAYLOAD,2022-12-24 16:17:08,15.08834587,0.0002125,53.214,345.9904,42.9965,317.1192,4.0295e-05,3.53e-06,0.0,0 STARLINK-4268,1 53183U 22083BD  22358.67856919  .00000353  00000-0  40295-4 0  9991,2 53183  53.2140 345.9904 0002125  42.9965 317.1192 15.08834587 25051,6917.897,95.438,541.232,538.2919999999998,0.0
53183.0,STARLINK-4268,PAYLOAD,2022-12-25 08:10:59,15.08836417,0.0002116,53.2145,343.0161,41.7256,318.3897,9.9201e-05,1.291e-05,0.0,0 STARLINK-4268,1 53183U 22083BD  22359.34096644  .00001291  00000-0  99201-4 0  9990,2 53183  53.2145 343.0161 0002116  41.7256 318.3897 15.08836417 25790,6917.891,95.438,541.22,538.293,0.0
53183.0,STARLINK-4268,PAYLOAD,2022-12-25 16:07:55,15.08835198,0.0002029,53.214,341.5288,41.7924,318.3223,-1.466e-05,-5.22e-06,0.0,0 STARLINK-4268,1 53183U 22083BD  22359.67217073 -.00000522  00000-0 -14660-4 0  9991,2 53183  53.2140 341.5288 0002029  41.7924 318.3223 15.08835198 25207,6917.895,95.438,541.164,538.356,0.0
53183.0,STARLINK-4268,PAYLOAD,2022-12-26 11:12:32,15.08841513,0.0001986,53.2145,337.9614,43.518,316.5968,2.5765e-05,1.22e-06,0.0,0 STARLINK-4268,1 53183U 22083BD  22360.46704412  .00000122  00000-0  25765-4 0  9990,2 53183  53.2145 337.9614 0001986  43.5180 316.5968 15.08841513 25326,6917.876,95.437,541.115,538.367,0.0
53183.0,STARLINK-4268,PAYLOAD,2022-12-27 07:52:32,15.08847132,0.0001636,53.2145,334.0957,51.2369,308.8769,5.2999e-05,5.56e-06,0.0,0 STARLINK-4268,1 53183U 22083BD  22361.32815739  .00000556  00000-0  52999-4 0  9991,2 53183  53.2145 334.0957 0001636  51.2369 308.8769 15.08847132 25451,6917.859,95.437,540.855,538.592,0.0
53183.0,STARLINK-4268,PAYLOAD,2022-12-27 15:49:27,15.08854254,0.0001839,53.2146,332.6089,47.3481,312.7666,6.59e-05,7.61e-06,0.0,0 STARLINK-4268,1 53183U 22083BD  22361.65935103  .00000761  00000-0  65900-4 0  9999,2 53183  53.2146 332.6089 0001839  47.3481 312.7666 15.08854254 26148,6917.837,95.437,540.974,538.43,0.0
53183.0,STARLINK-4268,PAYLOAD,2022-12-28 07:43:19,15.08848182,0.000175,53.215,329.634,47.01300000000001,313.1009,3.5731e-05,2.81e-06,0.0,0 STARLINK-4268,1 53183U 22083BD  22362.32175288  .00000281  00000-0  35731-4 0  9990,2 53183  53.2150 329.6340 0001750  47.0130 313.1009 15.08848182 26249,6917.855,95.437,540.931,538.51,0.0
53183.0,STARLINK-4268,PAYLOAD,2022-12-29 04:23:21,15.08831895,0.0001898,53.2155,325.7655,55.5636,304.5535,-6.3938e-05,-1.305e-05,0.0,0 STARLINK-4268,1 53183U 22083BD  22363.18288847 -.00001305  00000-0 -63938-4 0  9991,2 53183  53.2155 325.7655 0001898  55.5636 304.5535 15.08831895 26373,6917.905,95.438,541.0830000000002,538.457,0.0
53183.0,STARLINK-4268,PAYLOAD,2022-12-29 07:34:07,15.08831636,0.0001909,53.2155,325.1708,55.5322,304.5851,-6.3503e-05,-1.298e-05,0.0,0 STARLINK-4268,1 53183U 22083BD  22363.31536923 -.00001298  00000-0 -63503-4 0  9996,2 53183  53.2155 325.1708 0001909  55.5322 304.5851 15.08831636 25756,6917.906,95.438,541.092,538.45,0.0
53183.0,STARLINK-4268,PAYLOAD,2022-12-30 02:38:46,15.08822804,0.0002041,53.2146,321.606,44.7062,315.4094,-0.00012629,-2.297e-05,0.0,0 STARLINK-4268,1 53183U 22083BD  22364.11026506 -.00002297  00000-0 -12629-3 0  9998,2 53183  53.2146 321.6060 0002041  44.7062 315.4094 15.08822804 26519,6917.933000000001,95.439,541.21,538.386,0.0
53183.0,STARLINK-4268,PAYLOAD,2022-12-30 05:49:32,15.08831282,0.0001975,53.2156,321.0113,44.8704,315.2448,-6.6661e-05,-1.349e-05,0.0,0 STARLINK-4268,1 53183U 22083BD  22364.24273888 -.00001349  00000-0 -66661-4 0  9992,2 53183  53.2156 321.0113 0001975  44.8704 315.2448 15.08831282 26535,6917.906999999997,95.438,541.138,538.406,0.0
53183.0,STARLINK-4268,PAYLOAD,2022-12-30 13:46:27,15.08836108,0.0001915,53.2146,319.5245,44.9391,315.1756,0.00012808,1.751e-05,0.0,0 STARLINK-4268,1 53183U 22083BD  22364.57393289  .00001751  00000-0  12808-3 0  9994,2 53183  53.2146 319.5245 0001915  44.9391 315.1756 15.08836108 26587,6917.892,95.438,541.082,538.433,0.0
53183.0,STARLINK-4268,PAYLOAD,2022-12-31 04:04:54,15.08850444,0.0001918,53.2152,316.8509,47.674,312.4415,0.00037369,5.666e-05,0.0,0 STARLINK-4268,1 53183U 22083BD  22365.17007751  .00005666  00000-0  37369-3 0  9995,2 53183  53.2152 316.8509 0001918  47.6740 312.4415 15.08850444 26679,6917.848000000001,95.437,541.04,538.387,0.0
53183.0,STARLINK-4268,PAYLOAD,2022-12-31 07:15:40,15.08852915,0.0002055,53.2151,316.2539,43.0799,317.0354,0.00038719,5.882e-05,0.0,0 STARLINK-4268,1 53183U 22083BD  22365.30255558  .00005882  00000-0  38719-3 0  9990,2 53183  53.2151 316.2539 0002055  43.0799 317.0354 15.08852915 26052,6917.840999999999,95.437,541.128,538.284,0.0
53183.0,STARLINK-4268,PAYLOAD,2022-12-31 13:37:13,15.08849023,0.0002061,53.2147,315.0623,36.9496,323.1638,0.00037642,5.709e-05,0.0,0 STARLINK-4268,1 53183U 22083BD  22365.56751935  .00005709  00000-0  37642-3 0  9990,2 53183  53.2147 315.0623 0002061  36.9496 323.1638 15.08849023 26093,6917.853,95.437,541.144,538.2919999999998,0.0
53183.0,STARLINK-4268,PAYLOAD,2023-01-01 03:55:43,15.08840457,0.0002501,53.2145,312.3817,39.4936,320.6238,8.1753e-05,1.013e-05,0.0,0 STARLINK-4268,1 53183U 22083BD  23001.16369472  .00001013  00000-0  81753-4 0  9992,2 53183  53.2145 312.3817 0002501  39.4936 320.6238 15.08840457 26823,6917.879,95.438,541.474,538.014,0.0
53183.0,STARLINK-4268,PAYLOAD,2023-01-01 05:31:06,15.08829385,0.0001979,53.2132,312.0891,40.5423,319.5716,-0.00019748,-3.429e-05,0.0,0 STARLINK-4268,1 53183U 22083BD  23001.22993508 -.00003429  00000-0 -19748-3 0  9991,2 53183  53.2132 312.0891 0001979  40.5423 319.5716 15.08829385 26836,6917.913000000001,95.438,541.1469999999998,538.409,0.0
53183.0,STARLINK-4268,PAYLOAD,2023-01-01 13:28:02,15.08816429,0.000199,53.2134,310.6015,41.0069,319.1072,-0.00039538,-6.571e-05,0.0,0 STARLINK-4268,1 53183U 22083BD  23001.56114467 -.00006571  00000-0 -39538-3 0  9997,2 53183  53.2134 310.6015 0001990  41.0069 319.1072 15.08816429 26246,6917.9519999999975,95.439,541.194,538.441,0.0
53183.0,STARLINK-4268,PAYLOAD,2023-01-02 05:21:53,15.08843544,0.0001928,53.2142,307.6297,43.6743,316.4401,-9.0258e-05,-1.725e-05,0.0,0 STARLINK-4268,1 53183U 22083BD  23002.22353626 -.00001725  00000-0 -90258-4 0  9996,2 53183  53.2142 307.6297 0001928  43.6743 316.4401 15.08843544 26986,6917.87,95.437,541.068,538.401,0.0
53183.0,STARLINK-4268,PAYLOAD,2023-01-02 13:18:49,15.08843694,0.0002019,53.214,306.1419,45.4636,314.6521,1.8471e-05,6e-08,0.0,0 STARLINK-4268,1 53183U 22083BD  23002.55473699  .00000006  00000-0  18471-4 0  9991,2 53183  53.2140 306.1419 0002019  45.4636 314.6521 15.08843694 26391,6917.869000000002,95.437,541.131,538.337,0.0
53183.0,STARLINK-4268,PAYLOAD,2023-01-03 05:12:41,15.0883869,0.0002158,53.215,303.1661,47.0942,313.0231,0.00031422,4.716e-05,0.0,0 STARLINK-4268,1 53183U 22083BD  23003.21714326  .00004716  00000-0  31422-3 0  9992,2 53183  53.2150 303.1661 0002158  47.0942 313.0231 15.08838690 27134,6917.884,95.438,541.242,538.257,0.0
53183.0,STARLINK-4268,PAYLOAD,2023-01-03 13:09:37,15.08829389,0.0002088,53.2153,301.6815,46.0127,314.1037,0.00028374,4.229e-05,0.0,0 STARLINK-4268,1 53183U 22083BD  23003.54834971  .00004229  00000-0  28374-3 0  9998,2 53183  53.2153 301.6815 0002088  46.0127 314.1037 15.08829389 27183,6917.913000000001,95.438,541.222,538.3330000000002,0.0
